[Satellite]
VERSION=1.1
NAME=SL-14 R/B
NICKNAME=SL-14 R/B
TLE1=1 18749U 88001B   19317.26892361  .00000082  00000-0  71514-5 0  9997
TLE2=2 18749  82.5162 201.1722 0017387 296.3387 189.9475 14.83201514720779
STATUS=0
